{
    "links": {
        "self": "http://www.neowsapp.com/rest/v1/neo/54016211?api_key=iIulBulltgU6a56xZRHN4H3l9WmuAYTsLGpBGhQ2"
    },
    "id": "54016211",
    "neo_reference_id": "54016211",
    "name": "(2020 FT)",
    "designation": "2020 FT",
    "nasa_jpl_url": "http://ssd.jpl.nasa.gov/sbdb.cgi?sstr=54016211",
    "absolute_magnitude_h": 24.307,
    "estimated_diameter": {
        "kilometers": {
            "estimated_diameter_min": 0.0365725276,
            "estimated_diameter_max": 0.0817786579
        },
        "meters": {
            "estimated_diameter_min": 36.5725276234,
            "estimated_diameter_max": 81.7786578748
        },
        "miles": {
            "estimated_diameter_min": 0.0227251081,
            "estimated_diameter_max": 0.0508148864
        },
        "feet": {
            "estimated_diameter_min": 119.9886115278,
            "estimated_diameter_max": 268.3026919021
        }
    },
    "is_potentially_hazardous_asteroid": false,
    "close_approach_data": [
        {
            "close_approach_date": "2020-01-02",
            "close_approach_date_full": "2020-Jan-02 01:11",
            "epoch_date_close_approach": 1577927460000,
            "relative_velocity": {
                "kilometers_per_second": "19.3525432378",
                "kilometers_per_hour": "69669.1556562013",
                "miles_per_hour": "43289.7039687102"
            },
            "miss_distance": {
                "astronomical": "0.09988144",
                "lunar": "38.85388016",
                "kilometers": "14942050.6765328",
                "miles": "9284559.75964064"
            },
            "orbiting_body": "Venus"
        },
        {
            "close_approach_date": "2020-03-12",
            "close_approach_date_full": "2020-Mar-12 16:10",
            "epoch_date_close_approach": 1584029400000,
            "relative_velocity": {
                "kilometers_per_second": "23.0343671004",
                "kilometers_per_hour": "82923.7215615253",
                "miles_per_hour": "51525.5757669378"
            },
            "miss_distance": {
                "astronomical": "0.025763352",
                "lunar": "10.021943928",
                "kilometers": "3854142.58326024",
                "miles": "2394853.150421712"
            },
            "orbiting_body": "Earth"
        }
    ],
    "orbital_data": {
        "orbit_id": "4",
        "orbit_determination_date": "2020-03-22 06:08:57",
        "first_observation_date": "2020-03-16",
        "last_observation_date": "2020-03-22",
        "data_arc_in_days": 6,
        "observations_used": 48,
        "orbit_uncertainty": "9",
        "minimum_orbit_intersection": ".0183216",
        "jupiter_tisserand_invariant": "3.462",
        "epoch_osculation": "2458926.5",
        "eccentricity": ".7536821833991723",
        "semi_major_axis": "1.959124144819274",
        "inclination": "1.601045567942079",
        "ascending_node_longitude": "34.44832175158827",
        "orbital_period": "1001.593188557666",
        "perihelion_distance": ".4825671818018474",
        "perihelion_argument": "37.35810131846702",
        "aphelion_distance": "3.4356811078367",
        "perihelion_time": "2458875.126588380680",
        "mean_anomaly": "18.46500994040097",
        "mean_motion": ".3594273644356691",
        "equinox": "J2000",
        "orbit_class": {
            "orbit_class_type": "APO",
            "orbit_class_description": "Near-Earth asteroid orbits which cross the Earth’s orbit similar to that of 1862 Apollo",
            "orbit_class_range": "a (semi-major axis) > 1.0 AU; q (perihelion) < 1.017 AU"
        }
    },
    "is_sentry_object": false
}